;Nom;Adresse;Code_Postal;Ville;Telephone;Site_Internet;Menu;Prix_Menu;Style_Culinaire;Note;Suggestion;Prix_Suggestion;Prestation;Horaires;Longitude;Latitude
0;Auberge La Ferme de Ferrières;800 rte Burnets pringy;74000;ANNECY;04 50 22 04 00;www.aubergelafermedeferrieres.com;;;;;;;['Hôtel', 'Animaux acceptés', 'Wi-fi', 'Repas de groupes', 'Facilités bébés', 'Accès aux personnes à mobilité réduite', 'Restaurant', 'Terrasse', 'Aire de jeux pour les enfants', 'Gîte', 'Parking', 'Hôtels ', 'Restaurants '];['Lundi', '12h00 - 14h00', '19h00 - 21h00', 'Mardi', '12h00 - 14h00', '19h00 - 21h00', 'Mercredi', 'Jeudi', '12h00 - 14h00', '19h00 - 21h00', 'Vendredi', '12h00 - 14h00', '19h00 - 21h00', 'Samedi', '12h00 - 14h00', '19h00 - 21h00', 'Dimanche', '12h00 - 14h00'];;
1;Restaurant La Diligence;pl Général de Gaulle;74160;SAINT JULIEN EN GENEVOIS;04 50 49 07 55;www.la-diligence.fr;;;Restaurant savoyard;5.0;;;"['Cuisine gastronomique', 'Animaux acceptés', 'Repas de groupes', 'Cave à vins', 'Accès aux personnes à mobilité réduite', 'Accès wi-fi', 'Terrasse', 'Plat à emporter', ""Galerie d'art"", 'Brasserie', 'Restaurants ', 'Cafés, bars ']";['Lundi', 'Mardi', '08h00 - 23h45', 'Mercredi', '08h00 - 23h45', 'Jeudi', '08h00 - 23h45', 'Vendredi', '08h00 - 23h45', 'Samedi', '08h00 - 23h45', 'Dimanche'];;
2;Café de Balme;309 rte des Grottes de Balme;74300;MAGLAND;04 50 91 26 31;www.cafedebalme.com;;;;;;;"['Café Balme', 'Poule au pot', ""architecte d'intérieur pour home staging"", 'Cuisine traditionnelle française', 'Bœuf bourguignon', ""agencement d'appartement"", 'Coq au vin', 'Blanquette de veau', ""architecte d'intérieur designer"", ""repas d'affaire"", 'Tartes', 'Desserts', 'Pot-au-feu', ""repas d'entreprises"", 'Cours de cuisine', 'Restaurants ', 'Vente, installation de cuisines ', ""Architectes d'intérieur "", 'Décorateurs ']";['Lundi', 'Mardi', '09h00 - 18h00', 'Mercredi', '09h00 - 18h00', 'Jeudi', '09h00 - 18h00', 'Vendredi', '09h00 - 18h00', 'Samedi', '09h00 - 18h00', 'Dimanche'];;
3;Restaurant les Rochers;24 rte Paris;74330;LA BALME DE SILLINGY;04 50 68 70 07;http://www.hotellesrochers.fr;;;;;;;['Hôtel', 'Piscine extérieure', 'Animaux acceptés', 'Accueil de séminaires', 'Télévision par satellite', 'Terrasse', 'Climatisation', 'Organisation de réceptions', 'Soirée étape', 'Facilité bébés', 'Parc', 'Langues parlées : anglais, italien', 'Accès aux personnes à mobilité réduite', 'Restaurant', 'Parking', 'Restaurants ', 'Hôtels ', 'Restaurants pour réceptions, pour séminaires '];;;
4;La Cabane Du Pêcheur;876 rte Lac;74250;LA TOUR;04 50 36 91 23;www.lacabanedupecheur.net;['Menu à la carte : '];['45 €'];cuisine française;1.0;;;['animation musicale', 'Repas de famille', 'terrasse', 'repas de groupe', 'animaux acceptés', 'anglais parlé', 'bar à huître', 'parking', 'restaurant repas de groupe', 'accès handicapés', 'climatisation', 'Réservation uniquement par téléphone', 'Restaurant', 'enfant'];['Lundi', 'Mardi', '09h00 - 15h45', 'Mercredi', '09h00 - 14h30', '18h00 - 22h45', 'Jeudi', '09h00 - 14h30', '18h00 - 22h45', 'Vendredi', '09h00 - 14h30', '18h00 - 22h45', 'Samedi', '09h00 - 14h30', '18h00 - 22h45', 'Dimanche', '09h00 - 15h45'];;
5;Le Sarto;2 quai Perrière;74000;ANNECY;04 50 51 02 65;www.le-sarto.com;;;Restaurant savoyard;1.0;;;['menu enfant', 'carte des vins', 'repas de groupes', 'accès pour les personnes à mobilité réduite', 'menu du Sarto', 'animaux acceptés'];['Lundi', '12h00 - 14h00', '19h00 - 22h30', 'Mardi', '12h00 - 14h00', '19h00 - 22h30', 'Mercredi', '12h00 - 14h00', '19h00 - 22h30', 'Jeudi', '12h00 - 14h00', '19h00 - 22h30\n ', 'Vendredi', '12h00 - 14h00', '19h00 - 23h00', 'Samedi', '12h00 - 14h30', '19h00 - 23h00', 'Dimanche', '12h00 - 14h00', '19h00 - 22h30'];;
6;;;;;;;;;;;;;;;;
7;Les 3 Caesars;2 r Euro;74960;MEYTHET;04 50 22 35 20;www.facebook.com;;;Cuisine française;5.0;;;['Restaurant', 'Parking', 'Repas de groupes'];['Lundi', 'Mardi', '12h00 - 15h00', '19h00 - 22h30', 'Mercredi', '12h00 - 15h00', '19h00 - 22h30', 'Jeudi', '12h00 - 15h00', '19h00 - 22h30', 'Vendredi', '12h00 - 15h00', '19h00 - 22h30', 'Samedi', '12h00 - 15h00', '19h00 - 22h30', 'Dimanche'];45.921547;6.090663
8;Restaurant Le Pré de la Cure;1 pl de la Mairie;74140;YVOIRE;04 50 72 83 58;www.pre-delacure.com;;;Cuisine française;5.0;;;['Animaux acceptés', 'Wi-fi', 'Hammam', 'Ascenseur', '25 chambres', 'Facilités bébés', 'TV/Satellite', 'Sauna', 'Restaurant', 'Parking', 'Piscine couverte', 'Restaurants ', 'Hôtels '];;;
9;Restaurant Les Tournesols;6 r Pamphiot, Espace Léman 2;74200;THONON LES BAINS;04 50 70 83 62;www.hotel-thonon.com;['Formule Les tournesols (servi le midi uniquement) : ', 'Formule complète ( servi midi uniquement ) : ', 'Menu à 29.5€ Entrée, plat et dessert : ', 'Menu à 45€ Entrée, plat, fromage, dessert : '];['17.50 €', '24 €', '29.50 €', '45 €'];;;"['Soupe de poissons des Rives du Lac Léman', 'Œuf de poule poché sauce meurette', 'Filet de perches du lac Léman', 'Cuisses de grenouille à la provençale', 'Magret de canard au miel et vinaigre de cidre', ""Bréchets de volaille à l'aigre doux""]";['13.50 €', '12 €', '31 €', '23 €', '24 €', '17.50 €'];['Buffet', 'Ouvert 7j/7', 'Organisation de séminaire', 'Menus pour enfants', 'Wi-fi gratuit', 'Hôtel', 'Repas de groupes', 'Accès aux personnes à mobilité réduite', 'Facilités bébés', 'Restaurants ', 'Hôtels ', 'Restaurants pour réceptions, pour séminaires '];['Lundi', '12h00 - 13h45', '19h30 - 21h30', 'Mardi', '12h00 - 13h45', '19h30 - 21h30', 'Mercredi', '12h00 - 13h45', '19h30 - 21h30', 'Jeudi', '12h00 - 13h45', '19h30 - 21h30', 'Vendredi', '12h00 - 13h45', '19h30 - 21h30', 'Samedi', '12h00 - 13h45', '19h30 - 21h30', 'Dimanche', '12h00 - 13h45', '19h30 - 21h30'];;
10;McDonald's Chamonix Centre Ville;122 r Michel Croze;74400;CHAMONIX MONT BLANC;04 50 53 31 13;www.restaurants.mcdonalds.fr;;;fast food;5.0;;;"[""L'Happy anniversaire"", 'Wifi', 'Burger', 'Accès handicapés', 'Les Sandwichs', 'Climatisation', ""L'offre Happy Meal"", 'Vente à emporter', 'Les Desserts', ""L'offre McCafé"", 'Facilités bébés', 'McDrive', 'Fast Food', 'Les Salades', 'Hamburger', 'Les Menus', 'Commande en ligne', 'Les Boissons', 'burger', 'Restauration rapide ', 'Restaurants ']";['Lundi', '09h00 - 23h00', 'Mardi', '09h00 - 23h00', 'Mercredi', '09h00 - 23h00', 'Jeudi', '09h00 - 23h00', 'Vendredi', '09h00 - 23h00', 'Samedi', '09h00 - 23h00', 'Dimanche', '09h00 - 23h00'];45.923435;6.871382
11;Alb Hôtel;369 rte Asnières;74540;ALBY SUR CHÉRAN;04 50 68 14 14;www.albhotel.com;;;cuisine française;5.0;;;"['terrasse', ""repas d'affaire"", 'facilité bébé', 'apéritif dînatoire', 'wifi', 'repas de groupe', 'plat à emporter', 'fait maison', 'animaux acceptés', 'anglais parlé', ""repas d'anniversaire"", 'parking', 'accès handicapés', 'climatisation', 'brunch', 'Restaurants ', 'Hôtels ']";['Lundi', '07h00 - 22h30', 'Mardi', '07h00 - 22h30', 'Mercredi', '07h00 - 22h30', 'Jeudi', '07h00 - 22h30', 'Vendredi', '07h00 - 22h30', 'Samedi', '08h00 - 12h00', '18h00 - 20h30', 'Dimanche', '08h00 - 12h00'];;
12;Refuge Des Gourmets;90 rte Framboises;74140;MACHILLY;04 50 43 53 87;www.refugedesgourmets.com;;;français;5.0;"['Foie gras : mi-cuit, déclinaison autour de la pomme de Savoie, agastache', ""Risotto : Carnaroli, crémeux à la truffe noire Melano, fromage d'Abondance"", 'Langoustine : rôtie, déclinaison de carotte du jardin, bisque à la berce des Voirons', 'Boeuf : et escalope de foie gras poêlé, variation de panais, sauce au vin de noix (+ 10 truffe Melano)']";['38\xa0 €', '40\xa0 €', '50\xa0 €', '50\xa0 €'];['animaux acceptés', 'terrasse', 'parking', 'Zone fumeur', 'facilité bébé', 'restaurant repas de groupe', 'accès handicapés', 'wifi', 'climatisation', 'Restaurants ', 'Restaurants gastronomiques ', 'Restaurants pour réceptions, pour séminaires ', 'Restauration à domicile '];['Lundi', 'Mardi', '19h00 - 21h00', 'Mercredi', '12h00 - 14h00', '19h00 - 21h00', 'Jeudi', '12h00 - 14h00', '19h00 - 21h00', 'Vendredi', '12h00 - 14h00', '19h00 - 21h00', 'Samedi', '12h00 - 14h00', '19h00 - 21h00', 'Dimanche', '12h00 - 14h00'];;
13;Aux Petits Oignons;10 chem Club;74300;ARÂCHES LA FRASSE;04 50 90 36 93;http://www.apo74.fr;;;restaurant français;4.0;;;"['Plat du jour, burger et salade repas à 16 € le midi en semaine', 'terrasse', 'Bar salon', ""repas d'affaire"", 'Réception (de 10 à 40 personnes)', 'Bon cadeau', 'facilité bébé', 'salle privée', 'Accès aux personnes à mobilité réduite', 'repas de groupe', 'menu de fêtes', 'Menu découverte à 30 €, Menu Terroir à 38 €, Menu Gourmand à 43 €', 'plat à emporter', 'restaurant végétarien', 'fait maison', 'animaux acceptés', ""repas d'anniversaire"", 'anglais parlé', 'parking', 'Repas, forfait de groupe', 'restaurant repas de groupe', 'accès handicapés']";['Lundi', '11h45 - 14h15', '18h45 - 21h45', 'Mardi', '11h45 - 14h15', '18h45 - 21h45', 'Mercredi', '11h45 - 14h15', '18h45 - 21h45', 'Jeudi', '11h45 - 14h15', '18h45 - 21h45', 'Vendredi', '11h45 - 14h15', '18h45 - 21h45', 'Samedi', '11h45 - 14h15', '18h45 - 21h45', 'Dimanche', '11h45 - 14h15', '18h45 - 21h45'];;
14;American diner;69 rte Epagny;74330;SILLINGY;04 50 22 65 41;www.american-diner.fr;;;restaurant américain;5.0;;;['Grandes variété de hamburgers', 'Restaurant américain', 'parking', 'Formules du midi', 'Spécialités hamburgers', 'facilité bébé', 'climatisation', 'Plats du jour', 'brunch'];['Lundi', '11h30 - 14h00', '18h30 - 22h00', 'Mardi', '11h30 - 14h00', '18h30 - 22h00', 'Mercredi', '11h30 - 14h00', '18h30 - 22h00', 'Jeudi', '11h30 - 14h00', '18h30 - 22h00', 'Vendredi', '11h30 - 14h00', '18h30 - 23h00', 'Samedi', '11h30 - 23h00', 'Dimanche', '09h00 - 22h00'];;
15;Chinatown;8 pass Bains;74000;ANNECY;04 50 09 29 24;https://www.restaurant-chinois-annecy.fr;;;;;;;['buffet à volonté', 'repas de groupe', 'parking', 'plat à emporter', 'menu enfant'];['Lundi', 'Mardi', '12h00 - 14h00', '19h00 - 23h00', 'Mercredi', '12h00 - 14h00', '19h00 - 23h00', 'Jeudi', '12h00 - 14h00', '19h00 - 23h00', 'Vendredi', '12h00 - 14h00', '19h00 - 23h00', 'Samedi', '12h00 - 14h00', '19h00 - 23h00', 'Dimanche', '12h00 - 14h00', '19h00 - 23h00'];45.899393;6.123025
16;Les Papilles;zone artisanale Du Grand Bois rte Thonon;74100;ANNEMASSE;04 50 37 60 73;www.les-papilles.com;;;Restaurant français;5.0;;;['Animaux acceptés', 'Wi-fi', 'Repas de groupes', 'Facilités bébés', 'Accès aux personnes à mobilité réduite', 'Climatisation', 'Parking'];['Lundi', '12h00 - 14h00', '19h00 - 22h30', 'Mardi', '12h00 - 14h00', '19h00 - 22h30', 'Mercredi', '12h00 - 14h00', '19h00 - 22h30', 'Jeudi', '12h00 - 14h00', '19h00 - 22h30', 'Vendredi', '12h00 - 14h00', '19h00 - 22h30', 'Samedi', '12h00 - 14h00', '19h00 - 22h30', 'Dimanche'];46.197246;6.267694
17;Restaurant Le Clos Des Sens;13 r Jean Mermoz;74940;ANNECY LE VIEUX;04 50 23 07 90;www.closdessens.com;;;;;;;['Table gastronomique', 'Parking', 'Animaux acceptés', 'Terrasse', 'Repas de groupes', 'Accès aux personnes à mobilité réduite', 'Facilités bébés', 'Restaurants ', 'Hôtels '];['Lundi', 'Mardi', '19h45 - 21h30', 'Mercredi', '12h00 - 13h30', '19h30 - 21h30', 'Jeudi', '12h00 - 13h30', '19h30 - 21h30', 'Vendredi', '12h00 - 13h30', '19h45 - 21h30', 'Samedi', '12h00 - 13h30', '19h45 - 21h30', 'Dimanche'];45.917819;6.144739
18;McDonald's Sallanches;Centre Cial Carrefour 1805 rte Genève;74700;SALLANCHES;04 50 47 87 27;www.restaurants.mcdonalds.fr;;;fast food;1.0;;;"[""L'Happy anniversaire"", 'Wifi', 'Burger', 'Accès handicapés', 'Les Sandwichs', 'Climatisation', ""L'offre Happy Meal"", 'Vente à emporter', 'Les Desserts', ""L'offre McCafé"", 'Facilités bébés', 'McDrive', 'Fast Food', 'Les Salades', 'Hamburger', 'Les Menus', 'Commande en ligne', 'Les Boissons', 'burger', 'Restauration rapide ', 'Restaurants ']";['Lundi', '10h30 - 23h30', 'Mardi', '10h30 - 23h30', 'Mercredi', '10h30 - 23h30', 'Jeudi', '10h30 - 23h30', 'Vendredi', '10h30 - 23h30', 'Samedi', '10h30 - 23h30', 'Dimanche', '10h30 - 23h30'];45.951683;6.629857
19;L'Estaminet;8 r Ste Claire;74000;ANNECY;04 50 45 88 83;https://www.lestaminet-annecy.fr;;;Restaurant français;5.0;;;['Animaux acceptés', 'Menus enfants', 'Climatisation', 'Repas de groupes', 'restaurant avec terrasse', 'Langue parlée : anglais', 'Restaurant', 'Terrasse', 'Service en salle', 'Restaurants ', 'Cafés, bars '];['Lundi', 'Mardi', '09h00 - 00h00', 'Mercredi', '09h00 - 00h00', 'Jeudi', '09h00 - 00h00', 'Vendredi', '09h00 - 00h00', 'Samedi', '09h00 - 01h00', 'Dimanche', '08h30 - 18h00'];45.898411;6.125102
20;McDonald's Scionzier;12 r Industrie;74950;SCIONZIER;04 50 89 73 41;www.restaurants.mcdonalds.fr;;;fast food;1.0;;;"['Les Menus', 'Vente à emporter', ""L'offre Happy Meal"", 'Commande en ligne', ""L'offre McCafé"", 'Hamburger', 'McDrive', 'Les Salades', ""L'Happy anniversaire"", 'Accès handicapés', 'Les Boissons', 'Les Sandwichs', 'Les Desserts', 'Wifi', 'Fast Food', 'Climatisation', 'Burger', 'Facilités bébés', 'burger', 'Restauration rapide ', 'Restaurants ']";['Lundi', '10h30 - 22h30', 'Mardi', '10h30 - 22h30', 'Mercredi', '10h30 - 22h30', 'Jeudi', '10h30 - 22h30', 'Vendredi', '10h30 - 22h30', 'Samedi', '10h30 - 23h00', 'Dimanche', '10h30 - 22h30'];46.06699;6.554719
21;L'Ancoly;445 chem Gettiers;74450;LE GRAND BORNAND;06 84 05 79 80;http://www.ancoly.com/;;;restaurant traditionnel;5.0;;;"['terrasse', 'restaurant repas de groupe', 'accès handicapés', ""restaurant d'altitude"", 'brasserie']";['Lundi', '09h00 - 17h00', 'Mardi', '09h00 - 17h00', 'Mercredi', '09h00 - 17h00', 'Jeudi', '09h00 - 17h00', 'Vendredi', '09h00 - 17h00', 'Samedi', '09h00 - 17h00', 'Dimanche', '09h00 - 17h00'];;
22;L'ASTI;17 av Cran;74000;ANNECY;04 50 67 08 57;www.restaurant-pizzeria-annecy.fr;;;Restaurant français;5.0;;;"['Parking', ""repas de groupes, d'anniversaire"", 'Terrasse couverte', 'Wi-fi', 'plat à emporter', 'Climatisation', 'Accès aux personnes à mobilité réduite', 'Restaurants ', 'Pizzerias ']";['Lundi', '07h30 - 15h00', '18h00 - 22h00', 'Mardi', '07h30 - 15h00', '18h00 - 22h00', 'Mercredi', '07h30 - 15h00', '18h00 - 22h00', 'Jeudi', '07h30 - 15h00', '18h30 - 23h00', 'Vendredi', '07h30 - 15h00', '18h30 - 23h00', 'Samedi', '10h00 - 15h00', '18h30 - 23h00', 'Dimanche'];45.905561;6.118968
23;Le Poisson Rouge;20 prom Seines;74320;SEVRIER;04 50 52 40 48;www.opoissonrouge.com;;;Restaurant français;1.0;;;['Cuisine traditionnelle', 'terrasse', 'Poissons et fruits de mer', 'Repas de groupes', 'Espace privatisable', 'Facilités bébés', 'restaurant avec terrasse', 'Organisation de mariages, de communions, de séminaires et autres', 'Grande terrasse', 'Langue parlée : anglais', 'Parking', 'Menus pour enfants'];['Lundi', '10h00 - 14h00', '18h00 - 01h00', 'Mardi', '10h00 - 14h00', '18h00 - 01h00', 'Mercredi', '10h00 - 14h00', '18h00 - 01h00', 'Jeudi', '10h00 - 14h00', '18h00 - 01h00', 'Vendredi', '10h00 - 14h00', '18h00 - 01h00', 'Samedi', '10h00 - 14h00', '18h00 - 01h00', 'Dimanche', '10h00 - 14h00', '18h00 - 01h00'];45.867389;6.143355
24;Restaurant Le Republic;16 r Liberté;74330;EPAGNY METZ TESSY;04 50 22 50 38;www.facebook.com/pages/category/Pizza-Place/Le-Republic-Epagny-189452131619316;['Menu du jour : ', 'Entrée+Plat ou Plat+Dessert : ', 'Plat du jour : ', 'Entrée+Plat+Fromage+Dessert : '];['16.50 €', '15.10 €', '12.00 €', '18.50 €'];Restaurant français;5.0;;;['Repas de groupes', 'Facilités bébés', 'Accès aux personnes à mobilité réduite', 'Terrasse', 'Pizzas à emporter', 'Pizzeria', 'Parking', 'Brasserie'];['Lundi', '10h00 - 15h00', '17h30 - 00h00', 'Mardi', '10h00 - 15h00', '17h30 - 00h00', 'Mercredi', '10h00 - 15h00', '17h30 - 00h00', 'Jeudi', '10h00 - 15h00', '17h30 - 00h00', 'Vendredi', '10h00 - 15h00', '17h30 - 00h00', 'Samedi', '10h00 - 15h00', '17h30 - 00h00', 'Dimanche'];45.93853;6.091145
25;McDonald's Chamonix Centre Ville;122 r Michel Croze;74400;CHAMONIX MONT BLANC;04 50 53 31 13;www.restaurants.mcdonalds.fr;;;fast food;5.0;;;"[""L'Happy anniversaire"", 'Wifi', 'Burger', 'Accès handicapés', 'Les Sandwichs', 'Climatisation', ""L'offre Happy Meal"", 'Vente à emporter', 'Les Desserts', ""L'offre McCafé"", 'Facilités bébés', 'McDrive', 'Fast Food', 'Les Salades', 'Hamburger', 'Les Menus', 'Commande en ligne', 'Les Boissons', 'burger', 'Restauration rapide ', 'Restaurants ']";['Lundi', '09h00 - 23h00', 'Mardi', '09h00 - 23h00', 'Mercredi', '09h00 - 23h00', 'Jeudi', '09h00 - 23h00', 'Vendredi', '09h00 - 23h00', 'Samedi', '09h00 - 23h00', 'Dimanche', '09h00 - 23h00'];45.923435;6.871382
26;KFC Annecy Seynod;12 chem Périaz;74600;SEYNOD;04 50 51 67 41;www.facebook.com;;;Restauration rapide;5.0;;;['Sur place', 'Vegan', 'Poulet grillé', 'Hamburger', 'Poulet', 'Chèques Vacances', 'Drive', 'Salade', 'A emporter', 'Wrap', 'WIFI', 'Uber Eats', 'Bornes de commande', 'Burger', 'Aire de jeux'];['Lundi', '11h00 - 23h00', 'Mardi', '11h00 - 23h00', 'Mercredi', '11h00 - 23h00', 'Jeudi', '11h00 - 23h00', 'Vendredi', '11h00 - 23h00', 'Samedi', '11h00 - 23h00', 'Dimanche', '11h00 - 23h00'];45.878116;6.089764
27;American diner;69 rte Epagny;74330;SILLINGY;04 50 22 65 41;www.american-diner.fr;;;restaurant américain;5.0;;;['Grandes variété de hamburgers', 'Restaurant américain', 'parking', 'Formules du midi', 'Spécialités hamburgers', 'facilité bébé', 'climatisation', 'Plats du jour', 'brunch'];['Lundi', '11h30 - 14h00', '18h30 - 22h00', 'Mardi', '11h30 - 14h00', '18h30 - 22h00', 'Mercredi', '11h30 - 14h00', '18h30 - 22h00', 'Jeudi', '11h30 - 14h00', '18h30 - 22h00', 'Vendredi', '11h30 - 14h00', '18h30 - 23h00', 'Samedi', '11h30 - 23h00', 'Dimanche', '09h00 - 22h00'];;
28;Restaurant Les Jardins De Léman;Grande Rue;74140;YVOIRE;04 50 72 80 32;http://www.restaurant-yvoire.fr;;;Restaurant français;5.0;;;['Spécialité de poisson du lac Léman', 'Animaux acceptés', 'Terrasse'];['Lundi', '12h00 - 14h30', '19h00 - 22h00', 'Mardi', '12h00 - 14h30', '19h00 - 22h00', 'Mercredi', 'Jeudi', '12h00 - 14h30', '19h00 - 22h00', 'Vendredi', ' 12h00 - 14h30', '19h00 - 22h00', 'Samedi', '12h00 - 14h30', '19h00 - 22h00', 'Dimanche', '12h00 - 14h30', '19h00 - 22h00'];46.370249;6.325826
29;L'Estaminet;8 r Ste Claire;74000;ANNECY;04 50 45 88 83;https://www.lestaminet-annecy.fr;;;Restaurant français;5.0;;;['Restaurant', 'Service en salle', 'Animaux acceptés', 'Terrasse', 'Menus enfants', 'Langue parlée : anglais', 'Repas de groupes', 'Climatisation', 'restaurant avec terrasse', 'Restaurants ', 'Cafés, bars '];['Lundi', 'Mardi', '09h00 - 00h00', 'Mercredi', '09h00 - 00h00', 'Jeudi', '09h00 - 00h00', 'Vendredi', '09h00 - 00h00', 'Samedi', '09h00 - 01h00', 'Dimanche', '08h30 - 18h00'];45.898411;6.125102
30;McDonald's Etrembières;Lieu dit Aux Poses Shopping Etrembières;74100;ETREMBIÈRES;04 50 43 99 66;www.restaurants.mcdonalds.fr;;;fast food;1.0;;;"['Les Menus', 'Vente à emporter', ""L'offre Happy Meal"", 'Commande en ligne', ""L'offre McCafé"", 'Hamburger', 'McDrive', 'Les Salades', ""L'Happy anniversaire"", 'Accès handicapés', 'Les Boissons', 'Les Sandwichs', 'Les Desserts', 'Wifi', 'Fast Food', 'Climatisation', 'Burger', 'Facilités bébés', 'burger', 'Restauration rapide ', 'Restaurants ']";['Lundi', '08h30 - 01h00', 'Mardi', '08h30 - 01h00', 'Mercredi', '08h30 - 01h00', 'Jeudi', '08h30 - 01h00', 'Vendredi', '08h30 - 01h00', 'Samedi', '08h30 - 01h00', 'Dimanche', '08h30 - 01h00'];46.18024;6.230927
31;Chez Ingalls;29 r Vaugelas;74000;ANNECY;04 50 45 25 96;https://www.chezingalls.fr;;;cuisine française;4.0;['Véritable tresse de Mozzarella Italienne', 'Sashimi de Saumon gravlax à la façon du chef', 'Burger à la cowboy, pulled pork, oignons rouges, oignons frits, vieux comté, cornichons , frites et salade verte', 'Truite de nos lacs, cuite à l’unilatérale, pommes grenailles, épinards et jus vert'];['15 €', '12 €', '20 €', '22 €'];"['restaurant végétarien', 'animaux acceptés', 'terrasse', ""repas d'anniversaire"", 'restaurant repas de groupe', 'menu de fêtes', 'repas de groupe', 'climatisation', 'Restaurant', 'Restaurants ', 'Restaurants pour réceptions, pour séminaires ']";['Lundi', '12h00 - 14h00', '19h30 - 22h00', 'Mardi', '12h00 - 14h00', '19h30 - 22h00', 'Mercredi', '12h00 - 14h00', '19h30 - 22h00', 'Jeudi', '12h00 - 14h00', '19h30 - 22h00', 'Vendredi', '12h00 - 14h00', '19h30 - 22h30', 'Samedi', '12h00 - 14h00', '19h30 - 22h30', 'Dimanche', '12h00 - 14h00'];;
32;Café Brunet;18 pl Gabriel Fauré;74940;ANNECY LE VIEUX;04 50 27 65 65;www.cafebrunet.com;;;Cuisine française;5.0;;;['Terrasse', 'Animaux acceptés', 'Repas de groupes', 'Facilités bébés'];['Lundi', 'Mardi', '12h00 - 14h00', '19h00 - 22h00', 'Mercredi', '12h00 - 14h00', '19h00 - 22h00', 'Jeudi', '12h00 - 14h00', '19h00 - 22h00', 'Vendredi', '12h00 - 14h00', '19h00 - 22h00', 'Samedi', '12h00 - 14h00', '19h00 - 22h00', 'Dimanche'];45.919421;6.142057
33;Restaurant A19;Zac Des Erables 2 all Chênes;74100;VÉTRAZ MONTHOUX;09 87 37 44 40;http://lea19.site-solocal.com;;;;;;;"['cuisine française', 'bar', 'plat à emporter', ""repas d'entreprises"", ""repas d'anniversaire"", 'parking', 'karaoké', 'Cuisine du terroir', 'climatisation', 'restaurant bio', 'Restaurant viande', 'brasserie', ""Repas d'entreprise"", 'Burger', 'Crêpe sans gluten', 'Produit local']";['Lundi', '11h00 - 14h30', 'Mardi', '11h00 - 14h30', 'Mercredi', '11h00 - 14h30', 'Jeudi', '11h00 - 14h30', '19h00 - 22h00', 'Vendredi', '11h00 - 14h30', '19h00 - 22h00', 'Samedi', '11h00 - 14h30', '19h00 - 22h00', 'Dimanche'];;
34;McDonald's Rumilly;r Forts;74150;RUMILLY;04 50 02 37 44;www.restaurants.mcdonalds.fr;;;Restauration rapide;5.0;;;"[""L'Happy anniversaire"", 'Wifi', 'Burger', 'Accès handicapés', 'Les Sandwichs', 'Climatisation', ""L'offre Happy Meal"", 'Vente à emporter', 'Les Desserts', ""L'offre McCafé"", 'Facilités bébés', 'McDrive', 'Fast Food', 'Les Salades', 'Hamburger', 'Les Menus', 'Commande en ligne', 'Les Boissons', 'burger', 'Restauration rapide ', 'Restaurants ']";['Lundi', '10h30 - 22h30', 'Mardi', '10h30 - 22h30', 'Mercredi', '10h30 - 22h30', 'Jeudi', '10h30 - 22h30', 'Vendredi', '10h30 - 23h00', 'Samedi', '10h30 - 23h00', 'Dimanche', '10h30 - 22h30'];45.859216;5.943177
35;La Piscine;146 rte de Lornard;74410;SAINT JORIOZ;04 50 68 63 29;www.chataigniers.com;;;Cuisine française;5.0;;;['Organisation de sèminaires', 'Grill', 'Hôtel', 'Accès aux personnes à mobilité réduite', 'Piscine', 'Résidence hôtelière', 'Restaurant', 'Résidence de tourisme', 'Tennis', 'Squash', 'Restaurants ', 'Hôtels ', 'Location de salles ', 'Hôtels avec piscine ', 'Organisation de séminaires, de congrès ', 'Résidences de tourisme, résidences hôtelières '];;;
36;Le Fréti;12 r Ste Claire;74000;ANNECY;04 50 51 29 52;http://www.lefreti-annecy.fr;;;Restaurant savoyard;5.0;;;['Spécialités à base de fromage', 'climatisation', 'repas de groupe', 'Restaurant savoyard', 'Fromagerie', 'Restaurants ', 'Fromageries '];;;
37;Brasserie des Européens;pl Hôtel de Ville;74000;ANNECY;04 50 45 00 81;www.brasserie-des-europeens.com;;;;;;;['accès aux personnes à mobilité réduite', 'facilités bébés', 'repas de groupes', 'plats à emporter', 'parking', 'animaux acceptés'];['Lundi', '12h00 - 14h00', 'Mardi', '12h00 - 14h00', 'Mercredi', '12h00 - 14h00', 'Jeudi', '12h00 - 14h00', 'Vendredi', '12h00 - 14h00', 'Samedi', '12h00 - 14h00', 'Dimanche', '12h00 - 14h00'];45.89909;6.12855
38;Hôtel Restaurant les Servages d'Armelles;rte des Servages;74300;LES CARROZ;04 50 90 01 62;www.servages.com;;;Restaurant savoyard;5.0;"['Jambon cru de Parme.', 'Soupe de Légumes', ""Boite de Petites Sardines 'Ramon Pena' à l'huile d'olive (16/20 pièces)."", ""Planche d'épaule Iberico 100 % bellota, Ajomar .""]";['18 €', '16 €', '12 €', '20 €'];"[""Privatisation de l'établissement"", 'Hôtel 4 étoiles', 'Cuisine raffinée et inventive', 'Spécialités savoyardes', 'Repas de groupes', 'Wifi', 'Voiturier', 'Pied des pistes', 'Langue parlée : anglais', 'Terrasse', 'Organisation de réceptions', ""Terrasse en prolongement d'une véranda, en bordure de piste"", 'Restaurants ', 'Hôtels ']";['Lundi', '08h00 - 12h00', '14h00 - 19h00', 'Mardi', '12h00 - 14h00', '19h15 - 21h30', 'Mercredi', '12h00 - 14h00\n ', '19h15 - 21h30', 'Jeudi', '12h00 - 14h00', '19h15 - 21h30', 'Vendredi', '12h00 - 14h00', '19h15 - 21h30', 'Samedi', '12h00 - 14h00', '19h15 - 21h30', 'Dimanche', '12h00 - 14h00', '19h15 - 21h30'];;
39;McDonald's Seynod;Centre Cial Géant Casino rn 201;74600;SEYNOD;04 50 10 95 46;www.restaurants.mcdonalds.fr;;;fast food;1.0;;;"[""L'Happy anniversaire"", 'Wifi', 'Burger', 'Accès handicapés', 'Les Sandwichs', 'Climatisation', ""L'offre Happy Meal"", 'Vente à emporter', 'Les Desserts', ""L'offre McCafé"", 'Facilités bébés', 'McDrive', 'Fast Food', 'Les Salades', 'Hamburger', 'Les Menus', 'Commande en ligne', 'Les Boissons', 'burger', 'Restauration rapide ', 'Restaurants ']";['Lundi', '10h30 - 22h30', 'Mardi', '10h30 - 22h30', 'Mercredi', '10h30 - 22h30', 'Jeudi', '10h30 - 22h30', 'Vendredi', '10h30 - 23h30', 'Samedi', '10h30 - 23h30', 'Dimanche', '10h30 - 22h30'];45.876746;6.089057
40;Bakhchich Baba;11 Bis av Mandallaz;74000;ANNECY;04 56 19 02 19;www.bakhchich-baba.com;;;;;;;['menu « découvertes à partager »', 'réservation de table en ligne', 'plats à emporter', 'plats sur place'];['Lundi', '12h00 - 14h00', '19h00 - 22h00', 'Mardi', '12h00 - 14h00', '19h00 - 22h00', 'Mercredi', 'Jeudi', '19h00 - 22h00', 'Vendredi', '12h00 - 14h00', '19h00 - 22h00', 'Samedi', '12h00 - 14h00', '19h00 - 22h00', 'Dimanche', '12h00 - 14h00', '19h00 - 22h00'];45.899107;6.115411
