;Nom;Adresse;Code_Postal;Ville;Telephone;Site_Internet;Menu;Prix_Menu;Style_Culinaire;Note;Suggestion;Prix_Suggestion;Prestation;Horaires;Longitude;Latitude
0;La Piscine;146 rte de Lornard;74410;SAINT JORIOZ;04 50 68 63 29;www.chataigniers.com;;;Cuisine française;5.0;;;['Hôtel', 'Grill', 'Résidence hôtelière', 'Tennis', 'Résidence de tourisme', 'Piscine', 'Accès aux personnes à mobilité réduite', 'Squash', 'Restaurant', 'Garage', 'Organisation de séminaires', 'Spa', 'Restaurants ', 'Hôtels ', 'Location de salles ', 'Hôtels avec piscine ', 'Organisation de séminaires, de congrès ', 'Résidences de tourisme, résidences hôtelières '];;;
1;Granny Smith;4 r Louis Revon;74000;ANNECY;09 50 14 11 67;http://grannysmith.site-solocal.com;['Formule Duo (2 choix + Jus du jour) : ', 'Formule Crudivore : ', 'Formule Trio (3 choix + Jus du jour) : ', 'Formule spéciale : '];['13.50 €', '13.50 €', '15.50 €', '15.50 €'];;;['Petite', 'Tarte aux légumes du jour', 'Soupe du jour', 'Cookie', 'Mousse chocolat, Parfait spéculoos, Mouhalabieh...'];['4.90 €', '5.00 €', '5.50 €', '2.90 €', '4.90 €'];"['restauration sans matières grasses', 'karaoké', 'bagel', 'tarterie', 'végétalien', 'accès internet', 'bar à salade', 'cuisine végétarienne', 'plat à emporter', 'restaurant végétarien', 'coffee-shop', 'animaux acceptés', 'restaurant végétalien', 'anglais parlé', 'parking', 'soirée à thème', 'accès handicapés', 'brunch', 'animation musicale', 'restaurant sans gluten', 'plat du jour', 'bar à soupe', 'menu végétarien', 'terrasse', ""organisation d'événement"", 'restaurant vegan', 'cafétéria', 'restaurant halal', 'wifi', 'restaurant bio', 'kebab', 'fait maison', 'brunch bio', ""repas d'anniversaire"", 'saladerie', 'service continu', 'espace de jeux']";['Lundi', '09h00 - 21h30', 'Mardi', '09h00 - 21h30', 'Mercredi', '09h00 - 21h30', 'Jeudi', '09h00 - 21h30', 'Vendredi', '09h00 - 21h30', 'Samedi', '11h00 - 15h00', 'Dimanche'];;
2;Oxo;25 r Centrale;74940;ANNECY LE VIEUX;04 50 68 54 82;fr-fr.facebook.com;;;;;;;['terrasse', 'facilité bébé', 'wifi', 'brasserie'];['Lundi', '11h00 - 00h00', 'Mardi', '11h00 - 03h00', 'Mercredi', '11h00 - 03h00', 'Jeudi', '11h00 - 03h00', 'Vendredi', '11h00 - 03h00', 'Samedi', '11h00 - 03h00', 'Dimanche', '00h00 - 03h00'];;
3;La Piscine;146 rte de Lornard;74410;SAINT JORIOZ;04 50 68 63 29;www.chataigniers.com;;;Cuisine française;5.0;;;['Accès aux personnes à mobilité réduite', 'Restaurant', 'Grill', 'Squash', 'Tennis', 'Résidence hôtelière', 'Résidence de tourisme', 'Hôtel', 'Piscine', 'Organisation de sèminaires', 'Restaurants ', 'Hôtels ', 'Location de salles ', 'Hôtels avec piscine ', 'Organisation de séminaires, de congrès ', 'Résidences de tourisme, résidences hôtelières '];;;
4;KFC Annecy Seynod;12 chem Périaz;74600;SEYNOD;04 50 51 67 41;www.facebook.com;;;Restauration rapide;5.0;;;['Bornes de commande', 'Vegan', 'Poulet grillé', 'Poulet', 'Aire de jeux', 'Burger', 'Wrap', 'A emporter', 'WIFI', 'Uber Eats', 'Chèques Vacances', 'Drive', 'Hamburger', 'Sur place', 'Salade'];['Lundi', '11h00 - 23h00', 'Mardi', '11h00 - 23h00', 'Mercredi', '11h00 - 23h00', 'Jeudi', '11h00 - 23h00', 'Vendredi', '11h00 - 23h00', 'Samedi', '11h00 - 23h00', 'Dimanche', '11h00 - 23h00'];45.878116;6.089764
5;Restaurant A19;Zac Des Erables 2 all Chênes;74100;VÉTRAZ MONTHOUX;09 87 37 44 40;http://lea19.site-solocal.com;;;;;;;"['cuisine française', 'bar', 'plat à emporter', ""repas d'entreprises"", ""repas d'anniversaire"", 'parking', 'karaoké', 'Cuisine du terroir', 'climatisation', 'restaurant bio', 'Restaurant viande', 'brasserie', ""Repas d'entreprise"", 'Burger', 'Crêpe sans gluten', 'Produit local']";['Lundi', '11h00 - 14h30', 'Mardi', '11h00 - 14h30', 'Mercredi', '11h00 - 14h30', 'Jeudi', '11h00 - 14h30', '19h00 - 22h00', 'Vendredi', '11h00 - 14h30', '19h00 - 22h00', 'Samedi', '11h00 - 14h30', '19h00 - 22h00', 'Dimanche'];;
6;Restaurant le Jardin Impérial;11 r Genève;74100;ANNEMASSE;04 50 38 71 70;https://www.lejardinimperial.com;;;Restaurant chinois;5.0;;;"['Parking à proximité', 'Animaux acceptés', 'Plats à emporter', 'Salle climatisée', 'Accès aux personnes à mobilité réduite', 'Restaurant', 'Repas de groupe', ""Ouvert tous les jours, toute l'année"", 'Plat du jour', 'Menus']";['Lundi', '12h00 - 14h00', '19h00 - 22h30', 'Mardi', '12h00 - 14h00', '19h00 - 22h30', 'Mercredi', '12h00 - 14h00', '19h00 - 22h30', 'Jeudi', '12h00 - 14h00', ' 19h00 - 22h30', 'Vendredi', '12h00 - 14h00', '19h00 - 22h30', 'Samedi', '12h00 - 14h00', '19h00 - 22h30', 'Dimanche', '12h00 - 14h00', '19h00 - 22h30'];46.192746;6.231846
7;McDonald's Seynod;Centre Cial Géant Casino rn 201;74600;SEYNOD;04 50 10 95 46;www.restaurants.mcdonalds.fr;;;fast food;1.0;;;"[""L'Happy anniversaire"", 'Wifi', 'Burger', 'Accès handicapés', 'Les Sandwichs', 'Climatisation', ""L'offre Happy Meal"", 'Vente à emporter', 'Les Desserts', ""L'offre McCafé"", 'Facilités bébés', 'McDrive', 'Fast Food', 'Les Salades', 'Hamburger', 'Les Menus', 'Commande en ligne', 'Les Boissons', 'burger', 'Restauration rapide ', 'Restaurants ']";['Lundi', '10h30 - 22h30', 'Mardi', '10h30 - 22h30', 'Mercredi', '10h30 - 22h30', 'Jeudi', ' 10h30 - 22h30', 'Vendredi', '10h30 - 23h30', 'Samedi', '10h30 - 23h30', 'Dimanche', '10h30 - 22h30'];45.876746;6.089057
8;Restaurant les Pêcheurs;307 chem la Renouillere;74140;SCIEZ;04 50 72 62 21;https://www.restaurant-les-pecheurs.fr;;;Restaurant poisson;5.0;;;"['Restaurant familial, panoramique', 'Stationnement gratuit sur parking privé', 'repas de fêtes', 'plage privée', ""Repas d'affaire, de fête, d'anniversaire"", ""repas d'affaire"", 'terrasse', 'restaurant repas de groupe', ""Terrasse les pieds dans l'eau"", 'menu de fêtes', 'salle privée', 'parking', ""repas d'anniversaire"", 'Accès aux personnes à mobilité réduite', 'repas de groupe', ""repas d'entreprises"", 'accès handicapés', 'animaux acceptés', 'Restaurants ', 'Restaurants avec terrasse ']";;;
9;McDonald's Annecy;Centre Cial Carrefour 134 av Genève;74000;ANNECY;09 67 17 38 50;www.restaurants.mcdonalds.fr;;;fast food;1.0;;;"[""L'Happy anniversaire"", 'Wifi', 'Burger', 'Accès handicapés', 'Les Sandwichs', 'Climatisation', ""L'offre Happy Meal"", 'Vente à emporter', 'Les Desserts', ""L'offre McCafé"", 'Facilités bébés', 'McDrive', 'Fast Food', 'Les Salades', 'Hamburger', 'Les Menus', 'Commande en ligne', 'Les Boissons', 'burger', 'Restauration rapide ', 'Restaurants ']";['Lundi', '08h30 - 00h00', 'Mardi', '08h30 - 00h00', 'Mercredi', '08h30 - 00h00', 'Jeudi', '08h30 - 00h00', 'Vendredi', '08h30 - 00h00', 'Samedi', '08h30 - 00h00', 'Dimanche', '08h30 - 00h00'];45.924893;6.123964
10;Le T Quatre;8 pl Notre Dame;74000;ANNECY;04 50 51 41 10;https://www.let4restaurant.fr;;;restaurant français;5.0;;;"['Formule du jour', 'plat du jour', ""repas d'entreprises"", 'animaux acceptés', 'bar à vin', ""repas d'anniversaire"", 'réservation de table possible', 'accès wi-fi', 'apéritif dînatoire', 'climatisation', 'repas de groupe']";['Lundi', 'Mardi', '12h00 - 14h00', '19h00 - 22h00', 'Mercredi', '12h00 - 14h00', '19h00 - 22h00', 'Jeudi', '12h00 - 14h00', '19h00 - 22h00', 'Vendredi', '12h00 - 14h00', '19h00 - 22h00', 'Samedi', '12h00 - 14h00', '19h00 - 22h00', 'Dimanche'];;
11;Restaurant La Renaissance (SAS);54 av Charles de Gaulle;74800;LA ROCHE SUR FORON;04 50 03 13 13;www.la-renaissance-sa.com;['FORMULE MENU Entrée + Plat + Café : ', 'FORMULE MENU Plat + Dessert + Café : ', 'FORMULE MENU Entrée + Plat + Dessert : ', 'MENU GOURMAND : '];['15.80 €', '15.80 €', '16.80 €', '36.00 €'];brasserie;4.0;['Dos de Cabillaud en brick de poivre noir et persil', 'Médaillon de Lotte braisé aux petits légumes', 'Crème Catalane et sa Poire rotie aux épices Sorbet Pêche', 'Tartare de Boeuf Charolais Pommes Frites Salade au Balsamique', 'Foie de Veau Poélé au Vinaigre Balsamique'];['25.00 €', '27.00 €', '9.50 €', '19.50 €', '25.00 €'];['Restaurant', 'Terrasse', 'Organisation de réceptions', 'Traiteur', 'Accès aux personnes à mobilité réduite', 'Restaurants ', 'Traiteurs ', 'Traiteurs, organisation de réception '];;;
12;McDonald's Etrembières;Lieu dit Aux Poses Shopping Etrembières;74100;ETREMBIÈRES;04 50 43 99 66;www.restaurants.mcdonalds.fr;;;fast food;1.0;;;"[""L'Happy anniversaire"", 'Wifi', 'Burger', 'Accès handicapés', 'Les Sandwichs', 'Climatisation', ""L'offre Happy Meal"", 'Vente à emporter', 'Les Desserts', ""L'offre McCafé"", 'Facilités bébés', 'McDrive', 'Fast Food', 'Les Salades', 'Hamburger', 'Les Menus', 'Commande en ligne', 'Les Boissons', 'burger', 'Restauration rapide ', 'Restaurants ']";['Lundi', '08h30 - 01h00', 'Mardi', '08h30 - 01h00', 'Mercredi', '08h30 - 01h00', 'Jeudi', '08h30 - 01h00', 'Vendredi', '08h30 - 01h00', 'Samedi', '08h30 - 01h00', 'Dimanche', '08h30 - 01h00'];46.18024;6.230927
13;Auberge à La Ferme de Bajole;490 chem de la Ferrande;74350;COPPONEX;04 50 44 13 97;www.aubergedebajole.com;;;Cuisine française;5.0;;;['Anglais parlé', 'repas de groupe', 'Parking', 'Cuisine traditionnelle du terroir', 'terrasse', 'Animaux acceptés', 'Plats à emporter', 'restaurant pour réception', 'Auberge rurale', 'Accès aux personnes à mobilité réduite', 'Restaurant', 'Repas de groupes', 'Facilités bébés', 'Restaurants ', 'Auberges '];['Lundi', 'Mardi', 'Mercredi', 'Jeudi', '12h00 - 13h00', 'Vendredi', '12h00 - 13h00', 'Samedi', '12h00 - 13h00', 'Dimanche', '12h00 - 13h00'];;
14;Restaurant L'Abri-Cotier;49 ch du Ponton Angon;74290;TALLOIRES;04 50 60 70 45;www.espace-lac.com;;;Cuisine française;2.0;;;['Animaux acceptés', 'Espace privatisable', 'Accès bateaux', 'Terrasse', 'Repas de groupes', 'Facilités bébés', 'Accès aux personnes à mobilité réduite', 'brunch', 'Restaurant', 'Accès wi-fi', 'Séminaires', 'restaurant pour réception', 'Parking'];['Lundi', '12h00 - 15h00', '19h00 - 23h00', 'Mardi', 'Mercredi', '12h00 - 15h00', '19h00 - 23h00', 'Jeudi', '12h00 - 15h00', '19h00 - 23h00', 'Vendredi', '12h00 - 15h00', '19h00 - 23h00', 'Samedi', '12h00 - 15h00', '19h00 - 23h00', 'Dimanche', '12h00 - 15h00', '19h00 - 23h00'];;
15;L'Ormeau;160 rte Mairie;74500;BERNEX;04 50 73 60 85;https://www.restaurantlormeau.fr;;;cuisine française;5.0;;;"['montagne', 'plat du jour', 'terrasse', 'facilité bébé', 'Banquets', 'wifi', 'repas de groupe', 'menu de fêtes', 'Langue parlée : anglais', 'bar', 'repas de fêtes', 'fait maison', 'animaux acceptés', ""repas d'anniversaire"", 'Crêperie (sucré)', 'parking', 'Accès wi-fi', 'restaurant repas de groupe', 'Restaurant', 'Restaurants ', 'Cafés, bars ']";['Lundi', '10h00 - 15h00', 'Mardi', '10h00 - 15h00', 'Mercredi', '10h00 - 15h00', 'Jeudi', '10h00 - 23h45', 'Vendredi', '10h00 - 23h45', 'Samedi', '10h00 - 23h45', 'Dimanche', '10h00 - 23h45'];;
16;Restaurant Le Republic;16 r Liberté;74330;EPAGNY METZ TESSY;04 50 22 50 38;www.facebook.com/pages/category/Pizza-Place/Le-Republic-Epagny-189452131619316;['Menu du jour : ', 'Entrée+Plat ou Plat+Dessert : ', 'Plat du jour : ', 'Entrée+Plat+Fromage+Dessert : '];['16.50 €', '15.10 €', '12.00 €', '18.50 €'];Restaurant français;5.0;;;['Parking', 'Pizzeria', 'Brasserie', 'Pizzas à emporter', 'Terrasse', 'Repas de groupes', 'Accès aux personnes à mobilité réduite', 'Facilités bébés'];['Lundi', '10h00 - 15h00', '17h30 - 00h00', 'Mardi', '10h00 - 15h00', '17h30 - 00h00', 'Mercredi', '10h00 - 15h00', '17h30 - 00h00', 'Jeudi', '10h00 - 15h00', '17h30 - 00h00', 'Vendredi', '10h00 - 15h00', '17h30 - 00h00', 'Samedi', '10h00 - 15h00', '17h30 - 00h00', 'Dimanche'];45.93853;6.091145
17;Brasserie des Européens;pl Hôtel de Ville;74000;ANNECY;04 50 45 00 81;www.brasserie-des-europeens.com;;;;;;;['accès aux personnes à mobilité réduite', 'facilités bébés', 'repas de groupes', 'plats à emporter', 'parking', 'animaux acceptés'];['Lundi', '12h00 - 14h00', 'Mardi', '12h00 - 14h00', 'Mercredi', '12h00 - 14h00', 'Jeudi', '12h00 - 14h00', 'Vendredi', '12h00 - 14h00', 'Samedi', '12h00 - 14h00', 'Dimanche', '12h00 - 14h00'];45.89909;6.12855
18;McDonald's Anthy sur Leman;Espace Leman 2 av Pré Robert Sud;74200;ANTHY SUR LÉMAN;04 50 70 32 61;www.restaurants.mcdonalds.fr;;;fast food;1.0;;;"['Les Menus', 'Vente à emporter', ""L'offre Happy Meal"", 'Commande en ligne', ""L'offre McCafé"", 'Hamburger', 'McDrive', 'Les Salades', ""L'Happy anniversaire"", 'Accès handicapés', 'Les Boissons', 'Les Sandwichs', 'Les Desserts', 'Wifi', 'Fast Food', 'Climatisation', 'Burger', 'Facilités bébés', 'burger', 'Restauration rapide ', 'Restaurants ']";['Lundi', '10h30 - 00h00', 'Mardi', '10h30 - 00h00', 'Mercredi', ' 10h30 - 00h00', 'Jeudi', '10h30 - 00h00', 'Vendredi', '10h30 - 00h00', 'Samedi', '10h30 - 00h00', 'Dimanche', '10h30 - 00h00'];46.35171;6.439026
19;Les Papilles;zone artisanale Du Grand Bois rte Thonon;74100;ANNEMASSE;04 50 37 60 73;www.les-papilles.com;;;Restaurant français;5.0;;;['Animaux acceptés', 'Wi-fi', 'Repas de groupes', 'Facilités bébés', 'Accès aux personnes à mobilité réduite', 'Climatisation', 'Parking'];['Lundi', '12h00 - 14h00', '19h00 - 22h30', 'Mardi', '12h00 - 14h00', '19h00 - 22h30', 'Mercredi', '12h00 - 14h00', '19h00 - 22h30', 'Jeudi', '12h00 - 14h00', '19h00 - 22h30', 'Vendredi', '12h00 - 14h00', '19h00 - 22h30', 'Samedi', '12h00 - 14h00', '19h00 - 22h30', 'Dimanche'];46.197246;6.267694
20;La Cabane Du Pêcheur;876 rte Lac;74250;LA TOUR;04 50 36 91 23;www.lacabanedupecheur.net;['Menu à la carte : '];['45 €'];cuisine française;1.0;;;['animation musicale', 'Repas de famille', 'terrasse', 'repas de groupe', 'animaux acceptés', 'anglais parlé', 'bar à huître', 'parking', 'restaurant repas de groupe', 'accès handicapés', 'climatisation', 'Réservation uniquement par téléphone', 'Restaurant', 'enfant'];['Lundi', 'Mardi', '09h00 - 15h45', 'Mercredi', '09h00 - 14h30', '18h00 - 22h45', 'Jeudi', '09h00 - 14h30', '18h00 - 22h45', 'Vendredi', ' 09h00 - 14h30', '18h00 - 22h45', 'Samedi', '09h00 - 14h30', '18h00 - 22h45', 'Dimanche', '09h00 - 15h45'];;
21;Boussole (La);691 rte Albertville;74320;SEVRIER;04 50 52 40 59;www.hotel-beauregard.com;;;Restaurant français;5.0;['Ballotine de Foie Gras mi-cuit,', 'Ravioles de la Closette', 'Assiette du jardin', 'Pavé de Cabillaud rôti', 'La Charrette Savoyarde', 'Mont-Blanc Déstructuré'];['15 €', '12 €', '20 €', '20 €', '8 €', '8 €'];['Restaurant', 'Hôtel', 'Cuisine gastronomique', 'terrasse', 'restaurant repas de groupe', 'Cuisine traditionnelle', 'Restaurants ', 'Hôtels ', 'Résidences de tourisme, résidences hôtelières ', 'Organisation de séminaires, de congrès '];['Lundi', '12h00 - 14h00', '19h15 - 23h00', 'Mardi', '12h00 - 14h00', '19h15 - 23h00', 'Mercredi', '12h00 - 14h00', '19h15 - 23h00', 'Jeudi', '12h00 - 14h00', '19h15 - 23h00', 'Vendredi', '12h00 - 14h00', '19h15 - 23h00', 'Samedi', '12h00 - 14h00', '19h15 - 23h00', 'Dimanche', '12h00 - 14h00', '19h15 - 23h00'];;
22;Bakhchich Baba;11 Bis av Mandallaz;74000;ANNECY;04 56 19 02 19;www.bakhchich-baba.com;;;;;;;['menu « découvertes à partager »', 'réservation de table en ligne', 'plats à emporter', 'plats sur place'];['Lundi', '12h00 - 14h00', ' 19h00 - 22h00', 'Mardi', '12h00 - 14h00', '19h00 - 22h00', 'Mercredi', 'Jeudi', '19h00 - 22h00', 'Vendredi', '12h00 - 14h00', '19h00 - 22h00', 'Samedi', '12h00 - 14h00', '19h00 - 22h00', 'Dimanche', '12h00 - 14h00', '19h00 - 22h00'];45.899107;6.115411
23;La Strada;24 r Euro;74960;MEYTHET;04 50 22 34 63;https://www.restaurant-strada-meythet.fr;;;Restaurant italien;5.0;;;['Accueil de groupes sur réservation', 'Terrasse', 'Wi-fi', 'Langues parlées : anglais, italien', 'Accès aux personnes à mobilité réduite', 'Restaurants ', 'Pizzerias '];['Lundi', '12h00 - 14h00', 'Mardi', '12h00 - 14h00', 'Mercredi', '12h00 - 14h00', 'Jeudi', '12h00 - 14h00', '19h00 - 22h00', 'Vendredi', '12h00 - 14h00', '19h00 - 22h00', 'Samedi', '12h00 - 14h00', '19h00 - 22h00', 'Dimanche', '12h00 - 14h00'];45.921872;6.090249
24;Restaurant Vincent Favre Félix;15 chem Abbaye;74940;ANNECY LE VIEUX;04 50 01 08 88;www.restaurant-vff.com;;;;;['Foie gras, Chocolat, Cèpes', 'Pomme de terre de région, Jus de volaille, Truffe', 'Céleri rave, Vin jaune, Noisette du Piémont', 'Lotte, Acha des montagnes, Escargots de Poisy', 'Carotte, Orange, Safran', 'Chocolat, Banane/avocat, Passion'];['21 €', '25 €', '25 €', '30 €', '17 €', '16 €'];['accès aux personnes à mobilité réduite', 'réception de mariage', 'animaux acceptés', 'terrasse', 'traiteur', 'événement privé', 'table créative', 'parking'];['Lundi', 'Mardi', '12h00 - 13h45', '19h30 - 21h00', 'Mercredi', '12h00 - 13h45', '19h30 - 21h00', 'Jeudi', '12h00 - 13h45', '19h30 - 21h00', 'Vendredi', '12h00 - 13h45', '19h30 - 21h00', 'Samedi', '12h00 - 13h45', '19h30 - 21h00', 'Dimanche'];;
25;Restaurant A19;Zac Des Erables 2 all Chênes;74100;VÉTRAZ MONTHOUX;09 87 37 44 40;http://lea19.site-solocal.com;;;;;;;"['cuisine française', 'bar', 'plat à emporter', ""repas d'entreprises"", ""repas d'anniversaire"", 'parking', 'karaoké', 'Cuisine du terroir', 'climatisation', 'restaurant bio', 'Restaurant viande', 'brasserie', ""Repas d'entreprise"", 'Burger', 'Crêpe sans gluten', 'Produit local']";['Lundi', '11h00 - 14h30', 'Mardi', '11h00 - 14h30', 'Mercredi', '11h00 - 14h30', 'Jeudi', '11h00 - 14h30', '19h00 - 22h00', 'Vendredi', '11h00 - 14h30', '19h00 - 22h00', 'Samedi', '11h00 - 14h30', '19h00 - 22h00', 'Dimanche'];;
26;;;;;;;;;;;;;;;;
27;Chez Mireille Le Darbelin;1780 rte Frebouges D'En Haut;74700;CORDON;04 50 58 06 04;www.ledarbelin.fr;;;Restaurant savoyard;5.0;['Barre de Foie gras, crumble et gelée de myrtille'];['15 €'];['Repas de groupe', 'Restaurant', 'Produits du terroir', 'Parking', 'Animaux acceptés', 'Plats du jour', 'Terrasse', 'Spécialités savoyardes', 'Accès aux personnes à mobilité réduite', 'Facilités bébés', 'Restaurants ', 'Cafés, bars '];['Lundi', '09h00 - 17h00', 'Mardi', '09h00 - 17h00', 'Mercredi', '09h00 - 17h00', 'Jeudi', '09h00 - 17h00', 'Vendredi', '09h00 - 17h00', 'Samedi', '09h00 - 17h00', 'Dimanche', ' 09h00 - 17h00'];;
28;Auberge du Lac;2 rte Port;74290;VEYRIER DU LAC;04 50 60 10 15;www.restaurant-aubergedulac.com;['Menu enfant : ', 'Menu : '];['10 €', '10 €'];Restaurant français;1.0;;;['Animaux acceptés', 'Terrasse couverte', 'Wi-fi', 'Repas de groupes', 'Facilités bébés', 'Langue parlée : anglais', 'Location de chambres', 'Accès aux personnes à mobilité réduite', 'Menu enfants'];['Lundi', 'Mardi', 'Mercredi', '12h00 - 14h30', '19h00 - 21h30', 'Jeudi', '12h00 - 14h30', '19h00 - 21h30', 'Vendredi', '12h00 - 14h30', '19h00 - 21h30', 'Samedi', '12h00 - 14h30', '19h00 - 21h30', 'Dimanche', '12h00 - 14h30', '19h00 - 21h30'];45.881835;6.174564
29;Brasserie des Européens;pl Hôtel de Ville;74000;ANNECY;04 50 45 00 81;www.brasserie-des-europeens.com;;;;;;;['accès aux personnes à mobilité réduite', 'facilités bébés', 'repas de groupes', 'plats à emporter', 'parking', 'animaux acceptés'];['Lundi', '12h00 - 14h00', 'Mardi', '12h00 - 14h00', 'Mercredi', '12h00 - 14h00', 'Jeudi', '12h00 - 14h00', 'Vendredi', '12h00 - 14h00', 'Samedi', '12h00 - 14h00', 'Dimanche', '12h00 - 14h00'];45.89909;6.12855
30;Restaurant La Diligence;pl Général de Gaulle;74160;SAINT JULIEN EN GENEVOIS;04 50 49 07 55;www.la-diligence.fr;;;Restaurant savoyard;5.0;;;"['Cuisine gastronomique', 'Animaux acceptés', 'Repas de groupes', 'Cave à vins', 'Accès aux personnes à mobilité réduite', 'Accès wi-fi', 'Terrasse', 'Plat à emporter', ""Galerie d'art"", 'Brasserie', 'Restaurants ', 'Cafés, bars ']";['Lundi', 'Mardi', '08h00 - 23h45', 'Mercredi', '08h00 - 23h45', 'Jeudi', '08h00 - 23h45', 'Vendredi', '08h00 - 23h45', 'Samedi', '08h00 - 23h45', 'Dimanche'];;
31;Chez Ingalls;29 r Vaugelas;74000;ANNECY;04 50 45 25 96;https://www.chezingalls.fr;;;cuisine française;4.0;['Véritable tresse de Mozzarella Italienne', 'Sashimi de Saumon gravlax à la façon du chef', 'Burger à la cowboy, pulled pork, oignons rouges, oignons frits, vieux comté, cornichons , frites et salade verte', 'Truite de nos lacs, cuite à l’unilatérale, pommes grenailles, épinards et jus vert'];['15 €', '12 €', '20 €', '22 €'];"['restaurant végétarien', 'animaux acceptés', 'terrasse', ""repas d'anniversaire"", 'restaurant repas de groupe', 'menu de fêtes', 'repas de groupe', 'climatisation', 'Restaurant', 'Restaurants ', 'Restaurants pour réceptions, pour séminaires ']";['Lundi', '12h00 - 14h00', '19h30 - 22h00', 'Mardi', '12h00 - 14h00', '19h30 - 22h00', 'Mercredi', '12h00 - 14h00', '19h30 - 22h00', 'Jeudi', '12h00 - 14h00', '19h30 - 22h00', 'Vendredi', '12h00 - 14h00', '19h30 - 22h30', 'Samedi', '12h00 - 14h00', '19h30 - 22h30', 'Dimanche', '12h00 - 14h00'];;
32;KFC Annemasse;64 rte Thonon;74100;ANNEMASSE;04 50 04 49 26;www.facebook.com;;;Restauration rapide;5.0;;;['Vegan', 'Poulet grillé', 'Uber Eats', 'Chèques Vacances', 'Poulet', 'Drive', 'Aire de jeux', 'Burger', 'Wrap', 'Hamburger', 'Salade', 'WIFI'];['Lundi', '11h00 - 22h00', 'Mardi', '11h00 - 22h00', 'Mercredi', '11h00 - 22h00', 'Jeudi', '11h00 - 22h00', 'Vendredi', '11h00 - 22h00', 'Samedi', '11h00 - 22h00', 'Dimanche', '11h00 - 22h00'];46.193999;6.258861
33;L'ASTI;17 av Cran;74000;ANNECY;04 50 67 08 57;www.restaurant-pizzeria-annecy.fr;;;Restaurant français;5.0;;;"['plat à emporter', 'Climatisation', 'Parking', ""repas de groupes, d'anniversaire"", 'Wi-fi', 'Terrasse couverte', 'Accès aux personnes à mobilité réduite', 'Restaurants ', 'Pizzerias ']";['Lundi', '07h30 - 15h00', '18h00 - 22h00', 'Mardi', '07h30 - 15h00', '18h00 - 22h00', 'Mercredi', '07h30 - 15h00', '18h00 - 22h00', 'Jeudi', '07h30 - 15h00', '18h30 - 23h00', 'Vendredi', '07h30 - 15h00\n ', '18h30 - 23h00', 'Samedi', '10h00 - 15h00', '18h30 - 23h00', 'Dimanche'];45.905561;6.118968
34;Le Ciselin Patrice;8 r Pré d'Avril;74940;ANNECY LE VIEUX;04 50 09 93 77;wwww.restaurant-le-ciselin.fr;;;cuisine française;5.0;;;['fait maison', 'animaux acceptés', 'terrasse', 'parking', 'facilité bébé', 'restaurant repas de groupe'];['Lundi', 'Mardi', '12h00 - 14h00', '19h00 - 22h00', 'Mercredi', '12h00 - 14h00', '19h00 - 22h00', 'Jeudi', ' 12h00 - 14h00', '19h00 - 22h00', 'Vendredi', '12h00 - 14h00', '19h00 - 22h00', 'Samedi', '12h00 - 14h00', '19h00 - 22h00', 'Dimanche'];;
35;Brasserie Brunet;10 r Poste;74000;ANNECY;04 50 51 22 10;www.brasseriebrunet.com;;;Restaurant français;5.0;;;['climatisation', 'repas de groupes', 'repas de groupe', 'facilité bébés', 'animaux acceptés', 'restaurants', 'cuisine gastronomique', 'facilités bébés', 'terrasse', 'Restaurants ', 'Cafés, bars '];['Lundi', 'Mardi', '12h00 - 14h00', '19h30 - 22h00', 'Mercredi', '12h00 - 14h00', '19h30 - 22h00', 'Jeudi', '12h00 - 14h00', '19h30 - 22h00', 'Vendredi', '12h00 - 14h00\n ', '19h30 - 22h00', 'Samedi', '12h00 - 14h00', '19h30 - 22h00', 'Dimanche'];45.9016;6.122727
36;Le Grenier;372 Charlet Straton;74400;ARGENTIÈRE;04 50 54 06 00;restaurant-legrenier.com;['Menu entrée, plat, dessert : ', 'Menu entrée, plat : ', 'Menu plat, dessert : '];['16.50 €', '14.00 €', '14.00 €'];Restaurant savoyard;5.0;"['Celle du Fournil: Pommes sautées au beurre salé, cannelle, miel, calvados', 'La coupe à Guy: 2 boules poire, eau de vie de poire', 'La Yaute : Salade verte, toast de Chèvre chaud, jambon, miel, olives', ""L'Assiette de charcuteries italiennes : Jambon cru mattonella, coppa, speck, pancetta al barolo, jambon blanc"", ""Quenelles de Féra, sauce à la bisque d'écrevisses du Léman, légumes"", 'La Croute de Nina : Pain, raclette fermière, chanterelles, Chignin et ail']";['7.00 €', '7.50 €', '8 €', '12 €', '21.50 €', '17.00 €'];['Menu ouvrier', 'Animaux acceptés', 'Service continu', 'Parking, terrasse', 'Wi-fi', 'Accès aux personnes à mobilité réduite'];['Lundi', '07h30 - 21h00', 'Mardi', '07h30 - 21h00', 'Mercredi', 'Jeudi', '07h30 - 21h00', 'Vendredi', '07h30 - 21h00', 'Samedi', '07h30 - 21h00', 'Dimanche', '07h30 - 21h00'];;
37;L'Ancoly;445 chem Gettiers;74450;LE GRAND BORNAND;06 84 05 79 80;http://www.ancoly.com/;;;restaurant traditionnel;5.0;;;"['terrasse', 'restaurant repas de groupe', 'accès handicapés', ""restaurant d'altitude"", 'brasserie']";['Lundi', '09h00 - 17h00', 'Mardi', '09h00 - 17h00', 'Mercredi', '09h00 - 17h00', 'Jeudi', '09h00 - 17h00', 'Vendredi', '09h00 - 17h00', 'Samedi', '09h00 - 17h00', 'Dimanche', '09h00 - 17h00'];;
38;Oxo;25 r Centrale;74940;ANNECY LE VIEUX;04 50 68 54 82;fr-fr.facebook.com;;;;;;;['terrasse', 'facilité bébé', 'wifi', 'brasserie'];['Lundi', '11h00 - 00h00', 'Mardi', '11h00 - 03h00', 'Mercredi', '11h00 - 03h00', 'Jeudi', '11h00 - 03h00', 'Vendredi', '11h00 - 03h00', 'Samedi', '11h00 - 03h00', 'Dimanche', '00h00 - 03h00'];;
39;Chinatown;8 pass Bains;74000;ANNECY;04 50 09 29 24;https://www.restaurant-chinois-annecy.fr;;;;;;;['buffet à volonté', 'repas de groupe', 'parking', 'plat à emporter', 'menu enfant'];['Lundi', 'Mardi', '12h00 - 14h00', '19h00 - 23h00', 'Mercredi', '12h00 - 14h00', '19h00 - 23h00', 'Jeudi', '12h00 - 14h00', '19h00 - 23h00', 'Vendredi', '12h00 - 14h00', '19h00 - 23h00', 'Samedi', '12h00 - 14h00', '19h00 - 23h00', 'Dimanche', '12h00 - 14h00', '19h00 - 23h00'];45.899393;6.123025
40;McDonald's Megève;603 rte Nationale;74120;MEGÈVE;04 50 21 15 15;www.restaurants.mcdonalds.fr;;;fast food;5.0;;;"[""L'Happy anniversaire"", 'Wifi', 'Burger', 'Accès handicapés', 'Les Sandwichs', 'Climatisation', ""L'offre Happy Meal"", 'Vente à emporter', 'Les Desserts', ""L'offre McCafé"", 'Facilités bébés', 'McDrive', 'Fast Food', 'Les Salades', 'Hamburger', 'Les Menus', 'Commande en ligne', 'Les Boissons', 'burger', 'Restauration rapide ', 'Restaurants ']";['Lundi', '09h00 - 23h00', 'Mardi', '09h00 - 23h00', 'Mercredi', '09h00 - 23h00', 'Jeudi', '09h00 - 23h00', 'Vendredi', '09h00 - 23h00', 'Samedi', '09h00 - 23h00', 'Dimanche', '09h00 - 23h00'];45.863988;6.625301
